#aV2019 12 17  0  0  0.00000000     288 DD+AD WGS84 FIT  NGA
## 2084 172800.00000000   300.00000000 58834 0.0000000000000
+   32     1  2  3  4  5  6  7  8  9 10 11 12 13 14 15 16 17
+         18 19 20 21 22 23 24 25 26 27 28 29 30 31 32  0  0
+          0  0  0  0  0  0  0  0  0  0  0  0  0  0  0  0  0
+          0  0  0  0  0  0  0  0  0  0  0  0  0  0  0  0  0
+          0  0  0  0  0  0  0  0  0  0  0  0  0  0  0  0  0
++         2  2  2  2  2  2  2  2  2  2  2  2  2  2  2  2  2
++         2  2  2  2  2  2  2  2  2  2  2  2  2  2  2  0  0
++         0  0  0  0  0  0  0  0  0  0  0  0  0  0  0  0  0
++         0  0  0  0  0  0  0  0  0  0  0  0  0  0  0  0  0
++         0  0  0  0  0  0  0  0  0  0  0  0  0  0  0  0  0
%c cc cc ccc ccc cccc cccc cccc cccc ccccc ccccc ccccc ccccc
%c cc cc ccc ccc cccc cccc cccc cccc ccccc ccccc ccccc ccccc
%f  0.0000000  0.000000000  0.00000000000  0.000000000000000
%f  0.0000000  0.000000000  0.00000000000  0.000000000000000
%i    0    0    0    0      0      0      0      0         0
%i    0    0    0    0      0      0      0      0         0
/*      NGA, ST. LOUIS,MO.                                  
/*   EPHEMERIS COMPUTED FROM 2 DAYS OF DATA                 
/*   EPOCHA v5 SMOOTHER                                     
/*   G1762 IERS2010 SATAF SATAPC                            
*  2019 12 17 14 10  0.00000000
P  1 -14005.806722  22222.078111  -2679.013645   -232.631380                    
V  1  -3894.317726   1090.026030  32115.432777     -0.123248                    
P  2  18702.059212  -8501.596955 -16140.973861   -368.103883                    
V  2  -9666.294806  19597.823162 -20831.224896     -0.073917                    
P  3  -9450.060141  13560.590835 -20830.795937    -54.585214                    
V  3 -26103.082467  -3508.666399   9672.237308     -0.068499                    
P  4  -3841.934510  20616.532632 -16283.514614    -21.768895                    
V  4  -9657.913716 -18405.703626 -21033.033294     -0.047673                    
P  5  25456.275324  -3243.074578   7090.964609     -4.818421                    
V  5   8923.065689   3464.692109 -29681.127439     -0.005073                    
P  6  14087.919483   5531.206033 -21778.977859   -156.183151                    
V  6 -15916.887957  22694.575570  -4493.061782     -0.110510                    
P  7   -660.679437  20703.495162  16631.631412   -171.946008                    
V  7 -14111.113073  15429.575048 -20583.701948     -0.082301                    
P  8 -10354.451005  12172.342738  21209.164742    -17.065060                    
V  8 -12049.664175 -24024.050324   8140.325448     -0.012957                    
P  9   5495.174842  24803.981240  -7782.213785   -110.347525                    
V  9  -6780.211002  -7671.815547 -29457.611773     -0.093258                    
P 10 -19677.686297 -11576.377649  13830.715834   -175.584013                    
V 10  17457.427906   -212.552255  24556.991980     -0.141695                    
P 11  -7985.221059  24946.272624   4806.919225   -416.755888                    
V 11  -2873.458972  -7289.830887  29619.054413      0.110485                    
P 12  14539.666783 -10817.307376 -19576.921334    172.251581                    
V 12  23859.795363   5165.248193  15199.973561     -0.040337                    
P 13  14752.534601  -3025.601230  21756.762868    -26.072031                    
V 13   8070.550243  26706.388163  -1674.342605      0.024472                    
P 14 -16704.914384 -11372.804274 -17002.299824    -44.299722                    
V 14  -5813.272035 -21450.791457  19506.754493      0.022279                    
P 15   9404.189896 -13951.803834  20171.334404   -265.052072                    
V 15  14397.391730  22296.412016   8966.379531      0.026614                    
P 16 -26007.679278   -724.871769   6214.549678   -103.954263                    
V 16  -7561.649902  -3240.634971 -30610.799094     -0.038945                    
P 17  14225.202077  20418.599041  -8949.058618    182.316349                    
V 17   2461.355634  11829.326652  29434.648383      0.067347                    
P 18 -17017.722216  19458.639740   5374.057687    107.280536                    
V 18   1520.249319  -7924.438860  30736.113759      0.024716                    
P 19  15995.238704  14227.622726 -16005.029073   -225.095772                    
V 19   4897.409158  19181.442844  22368.690349      0.051685                    
P 20 -10157.553455 -14423.539102  19810.305522    527.670015                    
V 20  25376.052342  -1970.595222  11320.447417      0.000537                    
P 21  -3229.644125 -19632.927647  18489.447454    -69.544368                    
V 21  12791.807204 -17760.073923 -17168.337757      0.057364                    
P 22 -17197.151251  11749.771692 -16204.575939   -777.980723                    
V 22 -21062.777746  -3017.556625  20003.096395     -0.019091                    
P 23  -1872.605556  21400.914215 -15018.647590   -148.993699                    
V 23 -11045.275450 -16770.325591 -22393.399477      0.023592                    
P 24  14126.244406 -22257.240320    -80.881989     -6.337279                    
V 24   3208.244859   2175.723330  31462.958712     -0.004847                    
P 25   -975.660380 -15281.624411 -21936.270245    -17.277440                    
V 25  27158.490269   2687.420450  -2850.420700      0.002381                    
P 26 -26042.277523  -4472.879127  -3669.831119    107.609612                    
V 26   4811.604273  -2634.122268 -30901.577701      0.081485                    
P 27 -15872.119357   -414.279288  21232.756178   -153.169086                    
V 27 -10750.816410 -24896.467085  -8169.792479     -0.116117                    
P 28  19132.795616  12987.765637  13547.839945    750.157458                    
V 28 -16251.754013  -1452.750657  25611.514826     -0.018175                    
P 29  -3328.537512 -24970.721865  -8410.415237     16.202953                    
V 29   5465.477488   9296.593196 -29888.592603     -0.098946                    
P 30   9038.507149  13435.126326  21057.496977   -107.989743                    
V 30 -17060.670639  20654.126362  -6057.737652     -0.086268                    
P 31 -16085.077239  -3221.882113 -21000.551677    -10.406629                    
V 31  15655.618755 -21411.690875  -8262.697268     -0.025259                    
P 32 -16034.249349 -19034.057923  -9403.865094    158.154986                    
V 32  -2654.609316 -11976.658794  28452.210950      0.113120                    
EOF
